COMMENT,ORIGINATOR,NORAD_CAT_ID,OBJECT_NAME,OBJECT_TYPE,CLASSIFICATION_TYPE,INTLDES,EPOCH,EPOCH_MICROSECONDS,MEAN_MOTION,ECCENTRICITY,INCLINATION,RA_OF_ASC_NODE,ARG_OF_PERICENTER,MEAN_ANOMALY,EPHEMERIS_TYPE,ELEMENT_SET_NO,REV_AT_EPOCH,BSTAR,MEAN_MOTION_DOT,MEAN_MOTION_DDOT,FILE,TLE_LINE0,TLE_LINE1,TLE_LINE2,OBJECT_ID,OBJECT_NUMBER,SEMIMAJOR_AXIS,PERIOD,APOGEE,PERIGEE
"GENERATED VIA SPACETRACK.ORG API","JSPOC","5917","METEOR 1-11","PAYLOAD","U","72022A","2016-01-10 12:13:19","960320","14.08616117","0.0030313","81.2256","35.5142","280.2537","79.5215","0","999","24797","8.9506e-06","2.8e-07","0","1979034","0 METEOR 1-11","1  5917U 72022A   16010.50925880 +.00000028 +00000-0 +89506-5 0  9993","2  5917 081.2256 035.5142 0030313 280.2537 079.5215 14.08616117247978","1972-022A","5917","7242.248","102.227","886.066","842.159"
"GENERATED VIA SPACETRACK.ORG API","JSPOC","35681","DEIMOS 1","PAYLOAD","U","09041A","2016-01-10 12:13:25","762944","14.71506095","0.0001623","98.0095","266.9142","149.5177","210.611","0","999","34612","4.5505e-05","2.33e-06","0","1978546","0 DEIMOS 1","1 35681U 09041A   16010.50932596  .00000233  00000-0  45505-4 0  9995","2 35681  98.0095 266.9142 0001623 149.5177 210.6110 14.71506095346127","2009-041A","35681","7034.401","97.858","657.407","655.124"
"GENERATED VIA SPACETRACK.ORG API","JSPOC","40019","APRIZESAT 10","PAYLOAD","U","14033K","2016-01-10 12:13:30","325728","14.66726586","0.0084338","97.9107","257.1494","188.7307","171.2436","0","999","8344","3.2869e-05","1.42e-06","0","1978572","0 APRIZESAT 10","1 40019U 14033K   16010.50937877  .00000142  00000-0  32869-4 0  9998","2 40019  97.9107 257.1494 0084338 188.7307 171.2436 14.66726586 83445","2014-033K","40019","7049.674","98.177","730.995","612.083"
"GENERATED VIA SPACETRACK.ORG API","JSPOC","36796","STUDSAT","PAYLOAD","U","10035B","2016-01-10 12:13:52","265280","14.86387736","0.0011911","98.0057","113.1069","251.0348","108.9576","0","999","29753","0.00011756","9.82e-06","0","1978597","0 STUDSAT","1 36796U 10035B   16010.50963270  .00000982  00000-0  11756-3 0  9992","2 36796  98.0057 113.1069 0011911 251.0348 108.9576 14.86387736297534","2010-035B","36796","6987.370","96.879","617.558","600.912"
"GENERATED VIA SPACETRACK.ORG API","JSPOC","16397","COSMOS 1711 (GLONASS)","PAYLOAD","U","85118B","2016-01-10 12:13:56","819424","2.13101422","0.0009506","65.453","90.3915","198.3951","170.6029","0","999","23355","0","5e-08","0","1979034","0 COSMOS 1711 (GLONASS)","1 16397U 85118B   16010.50968541 +.00000005 +00000-0 +00000-0 0  9990","2 16397 065.4530 090.3915 0009506 198.3951 170.6029 02.13101422233553","1985-118B","16397","25508.070","675.734","19154.183","19105.687"
"GENERATED VIA SPACETRACK.ORG API","JSPOC","21031","COSMOS 2117","PAYLOAD","U","90114D","2016-01-10 12:13:57","114912","12.64933478","0.0009641","82.5767","121.8555","100.1168","19.0698","0","999","15675","1.6955e-05","1.4e-07","0","1978516","0 COSMOS 2117","1 21031U 90114D   16010.50968883  .00000014  00000-0  16955-4 0  9992","2 21031  82.5767 121.8555 0009641 100.1168  19.0698 12.64933478156752","1990-114D","21031","7780.784","113.839","1410.150","1395.147"
"GENERATED VIA SPACETRACK.ORG API","JSPOC","18123","DMSP 5D-2 F8 (USA 26)","PAYLOAD","U","87053A","2016-01-10 12:14:00","267648","14.18465147","0.0012882","98.7383","202.211","318.6191","41.4008","0","999","47668","5.8915e-05","7.8e-07","0","1978610","0 DMSP 5D-2 F8 (USA 26)","1 18123U 87053A   16010.50972532  .00000078  00000-0  58915-4 0  9996","2 18123  98.7383 202.2110 0012882 318.6191  41.4008 14.18465147476682","1987-053A","18123","7208.685","101.518","839.836","821.263"
"GENERATED VIA SPACETRACK.ORG API","JSPOC","5556","THOR BURNER 2 R/B","ROCKET BODY","U","71087B","2016-01-10 12:14:13","344288","14.22856895","0.0061928","99.1321","170.3921","276.8206","82.5927","0","999","29272","3.44e-05","3.1e-07","0","1978519","0 THOR BURNER 2 R/B","1 05556U 71087B   16010.50987667  .00000031  00000-0  34400-4 0  9999","2 05556  99.1321 170.3921 0061928 276.8206  82.5927 14.22856895292723","1971-087B","5556","7193.844","101.204","860.259","771.159"
"GENERATED VIA SPACETRACK.ORG API","JSPOC","40300","CHUBUSAT 1","PAYLOAD","U","14070C","2016-01-10 12:14:20","670144","15.19021386","0.0022637","97.4401","93.132","129.4755","356.4614","0","999","6523","0.00012766","2.621e-05","0","1978582","0 CHUBUSAT 1","1 40300U 14070C   16010.50996146  .00002621  00000-0  12766-3 0  9993","2 40300  97.4401  93.1320 0022637 129.4755 356.4614 15.19021386 65236","2014-070C","40300","6886.933","94.797","524.388","493.208"
"GENERATED VIA SPACETRACK.ORG API","JSPOC","40421","SL-4 R/B","ROCKET BODY","U","15009B","2016-01-10 12:14:21","584256","15.87217333","0.0057786","97.6587","0.9024","335.953","23.9043","0","999","4948","0.00050093","0.00148641","1.003e-05","1978567","0 SL-4 R/B","1 40421U 15009B   16010.50997204  .00148641  10030-4  50093-3 0  9992","2 40421  97.6587   0.9024 0057786 335.9530  23.9043 15.87217333 49487","2015-009B","40421","6688.225","90.724","348.739","271.441"
"GENERATED VIA SPACETRACK.ORG API","JSPOC","23200","TURKSAT 1B","PAYLOAD","U","94049B","2016-01-10 12:14:21","784704","0.99045993","0.0011961","9.6645","44.7621","9.7256","169.4234","0","999","7755","0","-1.38e-06","0","1979034","0 TURKSAT 1B","1 23200U 94049B   16010.50997436 -.00000138 +00000-0 +00000-0 0  9997","2 23200 009.6645 044.7621 0011961 009.7256 169.4234 00.99045993077551","1994-049B","23200","42511.905","1453.870","36184.618","36082.921"
"GENERATED VIA SPACETRACK.ORG API","JSPOC","39634","SENTINEL 1A","PAYLOAD","U","14016A","2016-01-10 12:14:27","769632","14.59199616","0.0001184","98.1816","19.6254","73.9224","286.2107","0","999","9432","5.4964e-06","-2e-07","0","1978490","0 SENTINEL 1A","1 39634U 14016A   16010.51004363 -.00000020  00000-0  54964-5 0  9993","2 39634  98.1816  19.6254 0001184  73.9224 286.2107 14.59199616 94323","2014-016A","39634","7073.896","98.684","696.599","694.923"
"GENERATED VIA SPACETRACK.ORG API","JSPOC","40032","QB50P2","PAYLOAD","U","14033Y","2016-01-10 12:14:28","62528","14.87268201","0.0011182","97.9386","275.5247","213.6758","146.3748","0","999","8458","0.00011062","9.42e-06","0","1978570","0 QB50P2","1 40032U 14033Y   16010.51004702  .00000942  00000-0  11062-3 0  9995","2 40032  97.9386 275.5247 0011182 213.6758 146.3748 14.87268201 84587","2014-033Y","40032","6984.612","96.821","614.287","598.667"
"GENERATED VIA SPACETRACK.ORG API","JSPOC","40733","STARONE C4","PAYLOAD","U","15034B","2016-01-10 12:14:29","139072","1.0027186","0.0002164","0.0238","353.1891","326.8521","263.0465","0","999","182","0","-2.62e-06","0","1978529","0 STARONE C4","1 40733U 15034B   16010.51005948 -.00000262  00000-0  00000+0 0  9990","2 40733   0.0238 353.1891 0002164 326.8521 263.0465  1.00271860  1824","2015-034B","40733","42164.710","1436.095","35795.700","35777.451"
"GENERATED VIA SPACETRACK.ORG API","JSPOC","40273","ARIANE 5 R/B","ROCKET BODY","U","14062C","2016-01-10 12:14:29","361984","2.32992261","0.7234351","6.4867","346.5999","195.28","118.6924","0","999","1039","0.00018458","3.44e-06","0","1978690","0 ARIANE 5 R/B","1 40273U 14062C   16010.51006206  .00000344  00000-0  18458-3 0  9997","2 40273   6.4867 346.5999 7234351 195.2800 118.6924  2.32992261 10394","2014-062C","40273","24034.818","618.046","35044.314","269.052"
"GENERATED VIA SPACETRACK.ORG API","JSPOC","13067","COSMOS 1340","PAYLOAD","U","82013A","2016-01-10 12:14:33","69408","15.17787496","0.0004628","81.1864","24.2619","121.7655","352.0088","0","999","84833","8.9592e-05","1.835e-05","0","1978563","0 COSMOS 1340","1 13067U 82013A   16010.51010497  .00001835  00000-0  89592-4 0  9990","2 13067  81.1864  24.2619 0004628 121.7655 352.0088 15.17787496848335","1982-013A","13067","6890.665","94.874","515.719","509.341"
"GENERATED VIA SPACETRACK.ORG API","JSPOC","27453","NOAA 17","PAYLOAD","U","02032A","2016-01-10 12:14:39","712704","14.24917722","0.0010691","98.3638","351.4828","297.8113","62.1983","0","999","70418","2.8238e-05","2.5e-07","0","1978611","0 NOAA 17","1 27453U 02032A   16010.51018186  .00000025  00000-0  28238-4 0  9990","2 27453  98.3638 351.4828 0010691 297.8113  62.1983 14.24917722704187","2002-032A","27453","7186.906","101.058","816.454","801.087"
"GENERATED VIA SPACETRACK.ORG API","JSPOC","4954","THOR BURNER 2 R/B","ROCKET BODY","U","71012B","2016-01-10 12:15:01","356768","14.3805004","0.0038327","98.6563","188.1181","81.7727","278.7803","0","999","34843","4.1893e-05","8.3e-07","0","1978485","0 THOR BURNER 2 R/B","1 04954U 71012B   16010.51043237  .00000083  00000-0  41893-4 0  9996","2 04954  98.6563 188.1181 0038327  81.7727 278.7803 14.38050040348436","1971-012B","4954","7143.085","100.135","792.327","737.573"
"GENERATED VIA SPACETRACK.ORG API","JSPOC","29050","FORMOSAT 3D","PAYLOAD","U","06011D","2016-01-10 12:15:04","135392","14.58156096","0.0049497","72.0145","201.5455","26.0056","334.3566","0","999","52022","8.3524e-05","3.43e-06","0","1978497","0 FORMOSAT 3D","1 29050U 06011D   16010.51046453  .00000343  00000-0  83524-4 0  9996","2 29050  72.0145 201.5455 0049497  26.0056 334.3566 14.58156096520227","2006-011D","29050","7077.271","98.754","734.166","664.105"
"GENERATED VIA SPACETRACK.ORG API","JSPOC","21104","COSMOS 2129","PAYLOAD","U","91009E","2016-01-10 12:15:39","541248","12.53687359","0.0024667","74.0297","258.3999","16.5256","49.0889","0","999","14019","0.00019015","1.4e-07","0","1978545","0 COSMOS 2129","1 21104U 91009E   16010.51087432  .00000014  00000-0  19015-3 0  9999","2 21104  74.0297 258.3999 0024667  16.5256  49.0889 12.53687359140196","1991-009E","21104","7827.246","114.861","1468.418","1429.804"
